FLOCK 4H-10             
1 66713U 25276AZ  25362.43676592  .00017069  00000+0  85684-3 0  9991
2 66713  97.4379  73.9128 0003950 229.5785 130.5104 15.17361875  4506
FLOCK 4H-11             
1 66714U 25276BA  25362.75913794  .00015527  00000+0  76735-3 0  9999
2 66714  97.4409  74.2585 0002200 244.1166 115.9841 15.17934287  4558
FLOCK 4H-12             
1 66715U 25276BB  25362.83334491 -.00051136  00000+0 -25177-2 0  9991
2 66715  97.4391  74.3330 0002468 165.5927 285.8923 15.18187408  1309
FLOCK 4H-13             
1 66716U 25276BC  25362.81406470  .00009795  00000+0  48082-3 0  9990
2 66716  97.4424  74.3373 0002044 134.7539 225.3862 15.18284261  4568
FLOCK 4H-14             
1 66717U 25276BD  25362.81147926  .00009769  00000+0  47741-3 0  9991
2 66717  97.4412  74.3358 0001924 125.8298 234.3115 15.18439048  3811
FLOCK 4H-15             
1 66718U 25276BE  25362.76899527  .00007636  00000+0  38770-3 0  9990
2 66718  97.4416  74.2437 0003324 240.4722 119.6180 15.17177456  4555
FLOCK 4H-16             
1 66719U 25276BF  25362.83281432  .00021468  00000+0  10778-2 0  9995
2 66719  97.4431  74.3173 0003476 225.3209 134.7742 15.17309907  4562
FLOCK 4H-17             
1 66720U 25276BG  25362.81668241 -.00392932  00000+0 -20617-1 0  9993
2 66720  97.4433  74.3420 0003482  50.0123 310.1416 15.17615429  4563
FLOCK 4H-18             
1 66721U 25276BH  25362.76831948  .00011942  00000+0  60340-3 0  9990
2 66721  97.4376  74.2267 0002584 252.1654 107.9297 15.17217550  4555
FLOCK 4H-19             
1 66722U 25276BJ  25362.81290556  .00021212  00000+0  10312-2 0  9995
2 66722  97.4384  74.3221 0002752 139.2765 220.8675 15.18440235  3857
FLOCK 4H-20             
1 66723U 25276BK  25362.81217365  .00010310  00000+0  50400-3 0  9993
2 66723  97.4420  74.3394 0003281 153.2337 206.9067 15.18412486  3812
FLOCK 4H-21             
1 66724U 25276BL  25362.81145926  .00012020  00000+0  58621-3 0  9990
2 66724  97.4387  74.3235 0003150 152.5626 207.5775 15.18454628  3814
