CCSDS_OMM_VERS = 2.0
CREATION_DATE  = 
ORIGINATOR     = 

OBJECT_NAME    = FLOCK 4H-10
OBJECT_ID      = 2025-276AZ
CENTER_NAME    = EARTH
REF_FRAME      = TEME
TIME_SYSTEM    = UTC
MEAN_ELEMENT_THEORY = SGP/SGP4

EPOCH          = 2025-12-28T10:28:56.575488
MEAN_MOTION    = 15.17361875
ECCENTRICITY   = .00039501
INCLINATION    = 97.4379
RA_OF_ASC_NODE = 73.9128
ARG_OF_PERICENTER = 229.5785
MEAN_ANOMALY   = 130.5104

EPHEMERIS_TYPE = 0
CLASSIFICATION_TYPE = U
NORAD_CAT_ID   = 66713
ELEMENT_SET_NO = 999
REV_AT_EPOCH   = 450
BSTAR          = .85684369E-3
MEAN_MOTION_DOT = .17069E-3
MEAN_MOTION_DDOT = 0

CCSDS_OMM_VERS = 2.0
CREATION_DATE  = 
ORIGINATOR     = 

OBJECT_NAME    = FLOCK 4H-11
OBJECT_ID      = 2025-276BA
CENTER_NAME    = EARTH
REF_FRAME      = TEME
TIME_SYSTEM    = UTC
MEAN_ELEMENT_THEORY = SGP/SGP4

EPOCH          = 2025-12-28T18:13:09.518016
MEAN_MOTION    = 15.17934287
ECCENTRICITY   = .00022
INCLINATION    = 97.4409
RA_OF_ASC_NODE = 74.2585
ARG_OF_PERICENTER = 244.1166
MEAN_ANOMALY   = 115.9841

EPHEMERIS_TYPE = 0
CLASSIFICATION_TYPE = U
NORAD_CAT_ID   = 66714
ELEMENT_SET_NO = 999
REV_AT_EPOCH   = 455
BSTAR          = .76735E-3
MEAN_MOTION_DOT = .15527E-3
MEAN_MOTION_DDOT = 0

CCSDS_OMM_VERS = 2.0
CREATION_DATE  = 
ORIGINATOR     = 

OBJECT_NAME    = FLOCK 4H-12
OBJECT_ID      = 2025-276BB
CENTER_NAME    = EARTH
REF_FRAME      = TEME
TIME_SYSTEM    = UTC
MEAN_ELEMENT_THEORY = SGP/SGP4

EPOCH          = 2025-12-28T20:00:01.000224
MEAN_MOTION    = 15.18187408
ECCENTRICITY   = .0002468
INCLINATION    = 97.4391
RA_OF_ASC_NODE = 74.3330
ARG_OF_PERICENTER = 165.5927
MEAN_ANOMALY   = 285.8923

EPHEMERIS_TYPE = 0
CLASSIFICATION_TYPE = U
NORAD_CAT_ID   = 66715
ELEMENT_SET_NO = 999
REV_AT_EPOCH   = 130
BSTAR          = -.25177E-2
MEAN_MOTION_DOT = -.51136E-3
MEAN_MOTION_DDOT = 0

CCSDS_OMM_VERS = 2.0
CREATION_DATE  = 
ORIGINATOR     = 

OBJECT_NAME    = FLOCK 4H-13
OBJECT_ID      = 2025-276BC
CENTER_NAME    = EARTH
REF_FRAME      = TEME
TIME_SYSTEM    = UTC
MEAN_ELEMENT_THEORY = SGP/SGP4

EPOCH          = 2025-12-28T19:32:15.190080
MEAN_MOTION    = 15.18284261
ECCENTRICITY   = .0002044
INCLINATION    = 97.4424
RA_OF_ASC_NODE = 74.3373
ARG_OF_PERICENTER = 134.7539
MEAN_ANOMALY   = 225.3862

EPHEMERIS_TYPE = 0
CLASSIFICATION_TYPE = U
NORAD_CAT_ID   = 66716
ELEMENT_SET_NO = 999
REV_AT_EPOCH   = 456
BSTAR          = .48082E-3
MEAN_MOTION_DOT = .9795E-4
MEAN_MOTION_DDOT = 0

CCSDS_OMM_VERS = 2.0
CREATION_DATE  = 
ORIGINATOR     = 

OBJECT_NAME    = FLOCK 4H-14
OBJECT_ID      = 2025-276BD
CENTER_NAME    = EARTH
REF_FRAME      = TEME
TIME_SYSTEM    = UTC
MEAN_ELEMENT_THEORY = SGP/SGP4

EPOCH          = 2025-12-28T19:28:31.808064
MEAN_MOTION    = 15.18439048
ECCENTRICITY   = .0001924
INCLINATION    = 97.4412
RA_OF_ASC_NODE = 74.3358
ARG_OF_PERICENTER = 125.8298
MEAN_ANOMALY   = 234.3115

EPHEMERIS_TYPE = 0
CLASSIFICATION_TYPE = U
NORAD_CAT_ID   = 66717
ELEMENT_SET_NO = 999
REV_AT_EPOCH   = 381
BSTAR          = .47741E-3
MEAN_MOTION_DOT = .9769E-4
MEAN_MOTION_DDOT = 0

CCSDS_OMM_VERS = 2.0
CREATION_DATE  = 
ORIGINATOR     = 

OBJECT_NAME    = FLOCK 4H-15
OBJECT_ID      = 2025-276BE
CENTER_NAME    = EARTH
REF_FRAME      = TEME
TIME_SYSTEM    = UTC
MEAN_ELEMENT_THEORY = SGP/SGP4

EPOCH          = 2025-12-28T18:27:21.191328
MEAN_MOTION    = 15.17177456
ECCENTRICITY   = .0003324
INCLINATION    = 97.4416
RA_OF_ASC_NODE = 74.2437
ARG_OF_PERICENTER = 240.4722
MEAN_ANOMALY   = 119.6180

EPHEMERIS_TYPE = 0
CLASSIFICATION_TYPE = U
NORAD_CAT_ID   = 66718
ELEMENT_SET_NO = 999
REV_AT_EPOCH   = 455
BSTAR          = .3877E-3
MEAN_MOTION_DOT = .7636E-4
MEAN_MOTION_DDOT = 0

CCSDS_OMM_VERS = 2.0
CREATION_DATE  = 
ORIGINATOR     = 

OBJECT_NAME    = FLOCK 4H-16
OBJECT_ID      = 2025-276BF
CENTER_NAME    = EARTH
REF_FRAME      = TEME
TIME_SYSTEM    = UTC
MEAN_ELEMENT_THEORY = SGP/SGP4

EPOCH          = 2025-12-28T19:59:15.157248
MEAN_MOTION    = 15.17309907
ECCENTRICITY   = .0003476
INCLINATION    = 97.4431
RA_OF_ASC_NODE = 74.3173
ARG_OF_PERICENTER = 225.3209
MEAN_ANOMALY   = 134.7742

EPHEMERIS_TYPE = 0
CLASSIFICATION_TYPE = U
NORAD_CAT_ID   = 66719
ELEMENT_SET_NO = 999
REV_AT_EPOCH   = 456
BSTAR          = .10778E-2
MEAN_MOTION_DOT = .21468E-3
MEAN_MOTION_DDOT = 0

CCSDS_OMM_VERS = 2.0
CREATION_DATE  = 
ORIGINATOR     = 

OBJECT_NAME    = FLOCK 4H-17
OBJECT_ID      = 2025-276BG
CENTER_NAME    = EARTH
REF_FRAME      = TEME
TIME_SYSTEM    = UTC
MEAN_ELEMENT_THEORY = SGP/SGP4

EPOCH          = 2025-12-28T19:36:01.360224
MEAN_MOTION    = 15.17615429
ECCENTRICITY   = .0003482
INCLINATION    = 97.4433
RA_OF_ASC_NODE = 74.3420
ARG_OF_PERICENTER = 50.0123
MEAN_ANOMALY   = 310.1416

EPHEMERIS_TYPE = 0
CLASSIFICATION_TYPE = U
NORAD_CAT_ID   = 66720
ELEMENT_SET_NO = 999
REV_AT_EPOCH   = 456
BSTAR          = -.20617E-1
MEAN_MOTION_DOT = -.392932E-2
MEAN_MOTION_DDOT = 0

CCSDS_OMM_VERS = 2.0
CREATION_DATE  = 
ORIGINATOR     = 

OBJECT_NAME    = FLOCK 4H-18
OBJECT_ID      = 2025-276BH
CENTER_NAME    = EARTH
REF_FRAME      = TEME
TIME_SYSTEM    = UTC
MEAN_ELEMENT_THEORY = SGP/SGP4

EPOCH          = 2025-12-28T18:26:22.803072
MEAN_MOTION    = 15.17217550
ECCENTRICITY   = .0002584
INCLINATION    = 97.4376
RA_OF_ASC_NODE = 74.2267
ARG_OF_PERICENTER = 252.1654
MEAN_ANOMALY   = 107.9297

EPHEMERIS_TYPE = 0
CLASSIFICATION_TYPE = U
NORAD_CAT_ID   = 66721
ELEMENT_SET_NO = 999
REV_AT_EPOCH   = 455
BSTAR          = .6034E-3
MEAN_MOTION_DOT = .11942E-3
MEAN_MOTION_DDOT = 0

CCSDS_OMM_VERS = 2.0
CREATION_DATE  = 
ORIGINATOR     = 

OBJECT_NAME    = FLOCK 4H-19
OBJECT_ID      = 2025-276BJ
CENTER_NAME    = EARTH
REF_FRAME      = TEME
TIME_SYSTEM    = UTC
MEAN_ELEMENT_THEORY = SGP/SGP4

EPOCH          = 2025-12-28T19:30:35.040384
MEAN_MOTION    = 15.18440235
ECCENTRICITY   = .0002752
INCLINATION    = 97.4384
RA_OF_ASC_NODE = 74.3221
ARG_OF_PERICENTER = 139.2765
MEAN_ANOMALY   = 220.8675

EPHEMERIS_TYPE = 0
CLASSIFICATION_TYPE = U
NORAD_CAT_ID   = 66722
ELEMENT_SET_NO = 999
REV_AT_EPOCH   = 385
BSTAR          = .10312E-2
MEAN_MOTION_DOT = .21212E-3
MEAN_MOTION_DDOT = 0

CCSDS_OMM_VERS = 2.0
CREATION_DATE  = 
ORIGINATOR     = 

OBJECT_NAME    = FLOCK 4H-20
OBJECT_ID      = 2025-276BK
CENTER_NAME    = EARTH
REF_FRAME      = TEME
TIME_SYSTEM    = UTC
MEAN_ELEMENT_THEORY = SGP/SGP4

EPOCH          = 2025-12-28T19:29:31.803360
MEAN_MOTION    = 15.18412486
ECCENTRICITY   = .0003281
INCLINATION    = 97.4420
RA_OF_ASC_NODE = 74.3394
ARG_OF_PERICENTER = 153.2337
MEAN_ANOMALY   = 206.9067

EPHEMERIS_TYPE = 0
CLASSIFICATION_TYPE = U
NORAD_CAT_ID   = 66723
ELEMENT_SET_NO = 999
REV_AT_EPOCH   = 381
BSTAR          = .504E-3
MEAN_MOTION_DOT = .1031E-3
MEAN_MOTION_DDOT = 0

CCSDS_OMM_VERS = 2.0
CREATION_DATE  = 
ORIGINATOR     = 

OBJECT_NAME    = FLOCK 4H-21
OBJECT_ID      = 2025-276BL
CENTER_NAME    = EARTH
REF_FRAME      = TEME
TIME_SYSTEM    = UTC
MEAN_ELEMENT_THEORY = SGP/SGP4

EPOCH          = 2025-12-28T19:28:30.080064
MEAN_MOTION    = 15.18454628
ECCENTRICITY   = .000315
INCLINATION    = 97.4387
RA_OF_ASC_NODE = 74.3235
ARG_OF_PERICENTER = 152.5626
MEAN_ANOMALY   = 207.5775

EPHEMERIS_TYPE = 0
CLASSIFICATION_TYPE = U
NORAD_CAT_ID   = 66724
ELEMENT_SET_NO = 999
REV_AT_EPOCH   = 381
BSTAR          = .58621E-3
MEAN_MOTION_DOT = .1202E-3
MEAN_MOTION_DDOT = 0

